NORAD_CAT_ID,OBJECT_NAME,OBJECT_TYPE,EPOCH,MEAN_MOTION,ECCENTRICITY,INCLINATION,RA_OF_ASC_NODE,ARG_OF_PERICENTER,MEAN_ANOMALY,BSTAR,MEAN_MOTION_DOT,MEAN_MOTION_DDOT,TLE_LINE0,TLE_LINE1,TLE_LINE2,SEMIMAJOR_AXIS,PERIOD,APOGEE,PERIGEE,DECAYED
53929.0,STARLINK-5018,PAYLOAD,2022-10-10 14:00:01,15.73215458,0.0001674,53.2172,175.6707,35.7352,117.2053,0.0002878,0.0003998999999999,0.0,0 STARLINK-5018,1 53929U 22119AV  22283.58334491  .00039990  00000-0  28780-3 0  9995,2 53929  53.2172 175.6707 0001674  35.7352 117.2053 15.73215458  1300,6727.851,91.532,350.842,348.59,0.0
53929.0,STARLINK-5018,PAYLOAD,2022-10-10 22:00:01,15.73381688,0.0001788,53.2173,174.0146,35.5185,206.4381,-0.0040832,-0.00542489,0.0,0 STARLINK-5018,1 53929U 22119AV  22283.91668981 -.00542489  00000-0 -40832-2 0  9991,2 53929  53.2173 174.0146 0001788  35.5185 206.4381 15.73381688  2944,6727.377,91.523,350.445,348.039,0.0
53929.0,STARLINK-5018,PAYLOAD,2022-10-11 06:00:00,15.73195391,0.0001976999999999,53.2166,172.3685,26.2018,304.5665,-0.00021775,-0.00031064,0.0,0 STARLINK-5018,1 53929U 22119AV  22284.25001157 -.00031064  00000-0 -21775-3 0  9993,2 53929  53.2166 172.3685 0001977  26.2018 304.5665 15.73195391  2991,6727.908,91.533,351.103,348.4430000000001,0.0
53929.0,STARLINK-5018,PAYLOAD,2022-10-11 14:00:01,15.73076179,0.0001916999999999,53.2174,170.7084,34.86,24.8082,0.0014504,0.00206929,0.0,0 STARLINK-5018,1 53929U 22119AV  22284.58334491  .00206929  00000-0  14504-2 0  9992,2 53929  53.2174 170.7084 0001917  34.8600  24.8082 15.73076179  1302,6728.248000000001,91.54,351.403,348.8230000000001,0.0
53929.0,STARLINK-5018,PAYLOAD,2022-10-11 22:00:00,15.73169085,0.0001992,53.2168,169.0762,38.5402,109.9206,0.00015892,0.00021712,0.0,0 STARLINK-5018,1 53929U 22119AV  22284.91667824  .00021712  00000-0  15892-3 0  9995,2 53929  53.2168 169.0762 0001992  38.5402 109.9206 15.73169085  3105,6727.983,91.535,351.189,348.5080000000001,0.0
53929.0,STARLINK-5018,PAYLOAD,2022-10-12 06:00:00,15.73272244,0.0001896999999999,53.2164,167.4228,32.7446,204.6478,-0.0003585,-0.0005078999999999,0.0,0 STARLINK-5018,1 53929U 22119AV  22285.25001157 -.00050790  00000-0 -35850-3 0  9990,2 53929  53.2164 167.4228 0001897  32.7446 204.6478 15.73272244  3159,6727.689,91.529,350.83,348.278,0.0
53929.0,STARLINK-5018,PAYLOAD,2022-10-12 14:00:01,15.73241872,0.0001717,53.2168,165.7648,33.6992,292.6947,-0.00048958,-0.00068896,0.0,0 STARLINK-5018,1 53929U 22119AV  22285.58334491 -.00068896  00000-0 -48958-3 0  9995,2 53929  53.2168 165.7648 0001717  33.6992 292.6947 15.73241872  1303,6727.776,91.531,350.796,348.486,0.0
53929.0,STARLINK-5018,PAYLOAD,2022-10-12 22:00:00,15.731996100000002,0.0001975,53.2174,164.111,29.5243,25.8196,5.2629e-05,6.771e-05,0.0,0 STARLINK-5018,1 53929U 22119AV  22285.91667824  .00006771  00000-0  52629-4 0  9994,2 53929  53.2174 164.1110 0001975  29.5243  25.8196 15.73199610  1300,6727.896,91.533,351.09,348.43300000000005,0.0
53929.0,STARLINK-5018,PAYLOAD,2022-10-13 06:00:00,15.73205547,0.0001991,53.2172,162.4595,27.1531,117.1238,-1.9076e-05,-3.298e-05,0.0,0 STARLINK-5018,1 53929U 22119AV  22286.25001157 -.00003298  00000-0 -19076-4 0  9995,2 53929  53.2172 162.4595 0001991  27.1531 117.1238 15.73205547  3310,6727.879,91.533,351.084,348.405,0.0
53929.0,STARLINK-5018,PAYLOAD,2022-10-13 14:00:01,15.72978597,0.0001989,53.2166,160.8128,42.019,191.332,0.0021991999999999,0.00316945,0.0,0 STARLINK-5018,1 53929U 22119AV  22286.58334491  .00316945  00000-0  21992-2 0  9993,2 53929  53.2166 160.8128 0001989  42.0190 191.3320 15.72978597  1305,6728.526,91.546,351.73,349.05300000000005,0.0
53929.0,STARLINK-5018,PAYLOAD,2022-10-13 22:00:00,15.73204174,0.0002151999999999,53.2173,159.1605,42.4407,279.7049,7.2163e-07,-5.2e-06,0.0,0 STARLINK-5018,1 53929U 22119AV  22286.91667824 -.00000520  00000-0  72163-6 0  9999,2 53929  53.2173 159.1605 0002152  42.4407 279.7049 15.73204174  1305,6727.8830000000025,91.533,351.196,348.3,0.0
53929.0,STARLINK-5018,PAYLOAD,2022-10-14 08:00:01,15.731419099999998,0.0001986,53.217,157.1049,31.6561,131.8889,-0.00082332,-0.00114338,0.0,0 STARLINK-5018,1 53929U 22119AV  22287.33335648 -.00114338  00000-0 -82332-3 0  9992,2 53929  53.2170 157.1049 0001986  31.6561 131.8889 15.73141910  3486,6728.061,91.537,351.26199999999994,348.59,0.0
53929.0,STARLINK-5018,PAYLOAD,2022-10-14 14:00:01,15.73088333,0.0001895,53.2173,155.861,43.4177,96.6528,0.0013238,0.00188493,0.0,0 STARLINK-5018,1 53929U 22119AV  22287.58334491  .00188493  00000-0  13238-2 0  9993,2 53929  53.2173 155.8610 0001895  43.4177  96.6528 15.73088333  1307,6728.214,91.54,351.35400000000016,348.80400000000014,0.0
53929.0,STARLINK-5018,PAYLOAD,2022-10-14 16:00:00,15.73208183,0.0001868,53.2176,155.4484,41.5456,210.6993,-2.3854e-05,-3.968e-05,0.0,0 STARLINK-5018,1 53929U 22119AV  22287.66667824 -.00003968  00000-0 -23854-4 0  9993,2 53929  53.2176 155.4484 0001868  41.5456 210.6993 15.73208183  3532,6727.871999999999,91.533,350.994,348.48,0.0
53929.0,STARLINK-5018,PAYLOAD,2022-10-14 20:00:01,15.73203213,0.0001892,53.2174,154.6239,40.0149,76.7006,1.5246e-05,1.519e-05,0.0,0 STARLINK-5018,1 53929U 22119AV  22287.83334491  .00001519  00000-0  15246-4 0  9997,2 53929  53.2174 154.6239 0001892  40.0149  76.7006 15.73203213  1307,6727.886,91.533,351.024,348.478,0.0
53929.0,STARLINK-5018,PAYLOAD,2022-10-15 14:00:01,15.73237976,0.0001569,53.2156,150.9298,36.1053,10.9403,-0.00042555,-0.00060017,0.0,0 STARLINK-5018,1 53929U 22119AV  22288.58334491 -.00060017  00000-0 -42555-3 0  9992,2 53929  53.2156 150.9298 0001569  36.1053  10.9403 15.73237976  1306,6727.7869999999975,91.531,350.707,348.596,0.0
53929.0,STARLINK-5018,PAYLOAD,2022-10-15 22:00:01,15.73342823,0.0001754999999999,53.2161,149.2732,30.3474,105.7227,-0.0044196999999999,-0.00583354,0.0,0 STARLINK-5018,1 53929U 22119AV  22288.91668981 -.00583354  00000-0 -44197-2 0  9990,2 53929  53.2161 149.2732 0001755  30.3474 105.7227 15.73342823  3730,6727.488,91.525,350.534,348.172,0.0
53929.0,STARLINK-5018,PAYLOAD,2022-10-16 06:00:00,15.73099318,0.0001831999999999,53.2157,147.6325,33.6681,191.1521,6.2127e-05,8.070000000000001e-05,0.0,0 STARLINK-5018,1 53929U 22119AV  22289.25001157  .00008070  00000-0  62127-4 0  9994,2 53929  53.2157 147.6325 0001832  33.6681 191.1521 15.73099318  3786,6728.182,91.539,351.28,348.815,0.0
53929.0,STARLINK-5018,PAYLOAD,2022-10-16 14:00:01,15.7310727,0.0001710999999999,53.2159,145.982,40.0011,273.6299,0.00069959,0.00098328,0.0,0 STARLINK-5018,1 53929U 22119AV  22289.58334491  .00098328  00000-0  69959-3 0  9994,2 53929  53.2159 145.9820 0001711  40.0011 273.6299 15.73107270  1305,6728.16,91.539,351.176,348.87300000000016,0.0
53929.0,STARLINK-5018,PAYLOAD,2022-10-16 22:00:00,15.73164435,0.0001916999999999,53.216,144.3316,35.7435,6.7479,0.00044283,0.00061894,0.0,0 STARLINK-5018,1 53929U 22119AV  22289.91667824  .00061894  00000-0  44283-3 0  9991,2 53929  53.2160 144.3316 0001917  35.7435   6.7479 15.73164435  1300,6727.996999999999,91.535,351.151,348.57199999999995,0.0
53929.0,STARLINK-5018,PAYLOAD,2022-10-17 14:00:01,15.73212587,0.0001523,53.2155,141.0309,34.7075,185.6853,0.000661,0.00093233,0.0,0 STARLINK-5018,1 53929U 22119AV  22290.58334491  .00093233  00000-0  66100-3 0  9991,2 53929  53.2155 141.0309 0001523  34.7075 185.6853 15.73212587  1307,6727.859,91.532,350.749,348.7,0.0
53929.0,STARLINK-5018,PAYLOAD,2022-10-17 22:00:00,15.73254029,0.0001821999999999,53.2158,139.3865,30.8784,278.454,-0.0005905,-0.00082878,0.0,0 STARLINK-5018,1 53929U 22119AV  22290.91667824 -.00082878  00000-0 -59050-3 0  9998,2 53929  53.2158 139.3865 0001822  30.8784 278.4540 15.73254029  1304,6727.741,91.53,350.832,348.38,0.0
53929.0,STARLINK-5018,PAYLOAD,2022-10-18 14:00:01,15.73142691,0.0001751999999999,53.2159,136.0858,39.0154,88.184,0.00045117,0.00063021,0.0,0 STARLINK-5018,1 53929U 22119AV  22291.58334491  .00063021  00000-0  45117-3 0  9999,2 53929  53.2159 136.0858 0001752  39.0154  88.1840 15.73142691  4151,6728.059,91.537,351.102,348.745,0.0
53929.0,STARLINK-5018,PAYLOAD,2022-10-18 22:00:00,15.73204496,0.0001979,53.2175,134.4175,41.4655,174.6939,-7.4607e-07,-7.26e-06,0.0,0 STARLINK-5018,1 53929U 22119AV  22291.91667824 -.00000726  00000-0 -74607-6 0  9999,2 53929  53.2175 134.4175 0001979  41.4655 174.6939 15.73204496  1303,6727.882,91.533,351.079,348.416,0.0
53929.0,STARLINK-5018,PAYLOAD,2022-10-19 14:00:01,15.732180599999998,0.0001654,53.2155,131.1375,31.6278,2.3475,0.0003063999999999,0.00042633,0.0,0 STARLINK-5018,1 53929U 22119AV  22292.58334491  .00042633  00000-0  30640-3 0  9991,2 53929  53.2155 131.1375 0001654  31.6278   2.3475 15.73218060  1303,6727.844,91.532,350.821,348.596,0.0
53929.0,STARLINK-5018,PAYLOAD,2022-10-19 22:00:00,15.73225838,0.0001867,53.2163,129.4795,31.8203,91.1266,-0.00026163,-0.0003722,0.0,0 STARLINK-5018,1 53929U 22119AV  22292.91667824 -.00037220  00000-0 -26163-3 0  9990,2 53929  53.2163 129.4795 0001867  31.8203  91.1266 15.73225838  1309,6727.821999999999,91.532,350.9430000000001,348.43,0.0
53929.0,STARLINK-5018,PAYLOAD,2022-10-20 06:00:00,15.73269046,0.0001847,53.2155,127.8391,28.9597,182.9342,-0.00060306,-0.00084664,0.0,0 STARLINK-5018,1 53929U 22119AV  22293.25001157 -.00084664  00000-0 -60306-3 0  9990,2 53929  53.2155 127.8391 0001847  28.9597 182.9342 15.73269046  4413,6727.698,91.529,350.806,348.321,0.0
53929.0,STARLINK-5018,PAYLOAD,2022-10-20 14:00:01,15.732343,0.0001773,53.2154,126.1891,31.0482,269.7989,-0.00038826,-0.00054839,0.0,0 STARLINK-5018,1 53929U 22119AV  22293.58334491 -.00054839  00000-0 -38826-3 0  9999,2 53929  53.2154 126.1891 0001773  31.0482 269.7989 15.73234300  1306,6727.797,91.531,350.855,348.47,0.0
53929.0,STARLINK-5018,PAYLOAD,2022-10-20 22:00:00,15.73155094,0.0002109999999999,53.2153,124.538,31.4002,358.4034,0.0006087999999999,0.00085534,0.0,0 STARLINK-5018,1 53929U 22119AV  22293.91667824  .00085534  00000-0  60880-3 0  9994,2 53929  53.2153 124.5380 0002110  31.4002 358.4034 15.73155094  4513,6728.023,91.536,351.30800000000005,348.469,0.0
